BUFENG 1A               
1 44310U 19032A   26068.91906837  .00016103  00000+0  62414-3 0  9992
2 44310  44.9758 238.6688 0005472  55.4463 304.6935 15.26012088372013
STARLINK-36479          
1 67352U 26003U   26068.46070078  .00027003  00000+0  98666-3 0  9997
2 67352  42.9952 227.9371 0000248 253.6948 106.3876 15.27597927  8797
